{"type": "FeatureCollection", "features": [ {"type": "Feature", "properties": {"norad_id": 29878, "name": "FENGYUN 1C DEB", "group": "fengyun-1c-debris", "lat": 25.954915884764908, "lon": 147.70185542464654, "alt_km": 568.7310149512978, "timestamp": "2025-12-03T17:47:50.989635+00:00", "meta": {"OBJECT_NAME": "FENGYUN 1C DEB", "OBJECT_ID": "1999-025FY", "EPOCH": "2025-12-03T11:18:16.973856", "MEAN_MOTION": 15.06510387, "ECCENTRICITY": 0.0033053, "INCLINATION": 96.9509, "RA_OF_ASC_NODE": 150.8621, "ARG_OF_PERICENTER": 207.652, "MEAN_ANOMALY": 152.2953, "EPHEMERIS_TYPE": 0, "CLASSIFICATION_TYPE": "U", "NORAD_CAT_ID": 29878, "ELEMENT_SET_NO": 999, "REV_AT_EPOCH": 98508, "BSTAR": 0.0091786, "MEAN_MOTION_DOT": 0.00139746, "MEAN_MOTION_DDOT": 0}, "tle": {"line1": "1 29878U 99025FY  25337.47102979  .00139746  00000+0  91786-2 0  9990", "line2": "2 29878  96.9509 150.8621 0033053 207.6520 152.2953 15.06510387985086"}}, "geometry": {"type": "Point", "coordinates": [147.70185542464654, 25.954915884764908]}}, {"type": "Feature", "properties": {"norad_id": 29880, "name": "FENGYUN 1C DEB", "group": "fengyun-1c-debris", "lat": -3.3277880842548884, "lon": -102.22877713101958, "alt_km": 1024.342525453997, "timestamp": "2025-12-03T17:47:50.989645+00:00", "meta": {"OBJECT_NAME": "FENGYUN 1C DEB", "OBJECT_ID": "1999-025GA", "EPOCH": "2025-12-03T06:27:48.442752", "MEAN_MOTION": 13.9386466, "ECCENTRICITY": 0.0231091, "INCLINATION": 98.194, "RA_OF_ASC_NODE": 256.8719, "ARG_OF_PERICENTER": 128.0211, "MEAN_ANOMALY": 22.3895, "EPHEMERIS_TYPE": 0, "CLASSIFICATION_TYPE": "U", "NORAD_CAT_ID": 29880, "ELEMENT_SET_NO": 999, "REV_AT_EPOCH": 95430, "BSTAR": 0.0010657, "MEAN_MOTION_DOT": 1.719e-05, "MEAN_MOTION_DDOT": 0}, "tle": {"line1": "1 29880U 99025GA  25337.26931068  .00001719  00000+0  10657-2 0  9995", "line2": "2 29880  98.1940 256.8719 0231091 128.0211  22.3895 13.93864660954305"}}, "geometry": {"type": "Point", "coordinates": [-102.22877713101958, -3.3277880842548884]}}, {"type": "Feature", "properties": {"norad_id": 29881, "name": "FENGYUN 1C DEB", "group": "fengyun-1c-debris", "lat": 55.60556241931505, "lon": 143.85062664260784, "alt_km": 839.8567758658774, "timestamp": "2025-12-03T17:47:50.989655+00:00", "meta": {"OBJECT_NAME": "FENGYUN 1C DEB", "OBJECT_ID": "1999-025GB", "EPOCH": "2025-12-02T22:06:31.241952", "MEAN_MOTION": 13.59554292, "ECCENTRICITY": 0.0291685, "INCLINATION": 98.721, "RA_OF_ASC_NODE": 310.1625, "ARG_OF_PERICENTER": 97.3089, "MEAN_ANOMALY": 331.4157, "EPHEMERIS_TYPE": 0, "CLASSIFICATION_TYPE": "U", "NORAD_CAT_ID": 29881, "ELEMENT_SET_NO": 999, "REV_AT_EPOCH": 93101, "BSTAR": 0.0023705811, "MEAN_MOTION_DOT": 2.289e-05, "MEAN_MOTION_DDOT": 0}, "tle": {"line1": "1 29881U 99025GB  25336.92119493  .00002289  00000+0  23706-2 0  9990", "line2": "2 29881  98.7210 310.1625 0291685  97.3089 331.4157 13.59554292931015"}}, "geometry": {"type": "Point", "coordinates": [143.85062664260784, 55.60556241931505]}}, {"type": "Feature", "properties": {"norad_id": 29884, "name": "FENGYUN 1C DEB", "group": "fengyun-1c-debris", "lat": -7.003592836784422, "lon": 11.278949809194025, "alt_km": 792.689082310977, "timestamp": "2025-12-03T17:47:50.989665+00:00", "meta": {"OBJECT_NAME": "FENGYUN 1C DEB", "OBJECT_ID": "1999-025GE", "EPOCH": "2025-12-03T08:07:41.056032", "MEAN_MOTION": 14.40233447, "ECCENTRICITY": 0.004444, "INCLINATION": 99.604, "RA_OF_ASC_NODE": 9.6356, "ARG_OF_PERICENTER": 163.7825, "MEAN_ANOMALY": 261.5546, "EPHEMERIS_TYPE": 0, "CLASSIFICATION_TYPE": "U", "NORAD_CAT_ID": 29884, "ELEMENT_SET_NO": 999, "REV_AT_EPOCH": 98414, "BSTAR": 0.00098053, "MEAN_MOTION_DOT": 3.087e-05, "MEAN_MOTION_DDOT": 0}, "tle": {"line1": "1 29884U 99025GE  25337.33866963  .00003087  00000+0  98053-3 0  9995", "line2": "2 29884  99.6040   9.6356 0044440 163.7825 261.5546 14.40233447984145"}}, "geometry": {"type": "Point", "coordinates": [11.278949809194025, -7.003592836784422]}}, {"type": "Feature", "properties": {"norad_id": 29885, "name": "FENGYUN 1C DEB", "group": "fengyun-1c-debris", "lat": -3.3894897768189454, "lon": -86.13897527296044, "alt_km": 933.2374252873396, "timestamp": "2025-12-03T17:47:50.989676+00:00", "meta": {"OBJECT_NAME": "FENGYUN 1C DEB", "OBJECT_ID": "1999-025GF", "EPOCH": "2025-12-03T08:11:33.186048", "MEAN_MOTION": 14.13573369, "ECCENTRICITY": 0.01178, "INCLINATION": 98.3541, "RA_OF_ASC_NODE": 272.9884, "ARG_OF_PERICENTER": 191.3518, "MEAN_ANOMALY": 289.5795, "EPHEMERIS_TYPE": 0, "CLASSIFICATION_TYPE": "U", "NORAD_CAT_ID": 29885, "ELEMENT_SET_NO": 999, "REV_AT_EPOCH": 97324, "BSTAR": 0.00020318, "MEAN_MOTION_DOT": 3.69e-06, "MEAN_MOTION_DDOT": 0}, "tle": {"line1": "1 29885U 99025GF  25337.34135632  .00000369  00000+0  20318-3 0  9998", "line2": "2 29885  98.3541 272.9884 0117800 191.3518 289.5795 14.13573369973241"}}, "geometry": {"type": "Point", "coordinates": [-86.13897527296044, -3.3894897768189454]}}, {"type": "Feature", "properties": {"norad_id": 29887, "name": "FENGYUN 1C DEB", "group": "fengyun-1c-debris", "lat": -19.273591318057814, "lon": -123.80447306837598, "alt_km": 989.3279269542709, "timestamp": "2025-12-03T17:47:50.989686+00:00", "meta": {"OBJECT_NAME": "FENGYUN 1C DEB", "OBJECT_ID": "1999-025GH", "EPOCH": "2025-12-03T05:15:53.594784", "MEAN_MOTION": 14.33639267, "ECCENTRICITY": 0.0287734, "INCLINATION": 98.7196, "RA_OF_ASC_NODE": 58.7449, "ARG_OF_PERICENTER": 27.229, "MEAN_ANOMALY": 358.2473, "EPHEMERIS_TYPE": 0, "CLASSIFICATION_TYPE": "U", "NORAD_CAT_ID": 29887, "ELEMENT_SET_NO": 999, "REV_AT_EPOCH": 97838, "BSTAR": 0.00067107, "MEAN_MOTION_DOT": 2.906e-05, "MEAN_MOTION_DDOT": 0}, "tle": {"line1": "1 29887U 99025GH  25337.21937031  .00002906  00000+0  67107-3 0  9995", "line2": "2 29887  98.7196  58.7449 0287734  27.2290 358.2473 14.33639267978387"}}, "geometry": {"type": "Point", "coordinates": [-123.80447306837598, -19.273591318057814]}}, {"type": "Feature", "properties": {"norad_id": 29888, "name": "FENGYUN 1C DEB", "group": "fengyun-1c-debris", "lat": 2.678738587262885, "lon": 169.65848272991101, "alt_km": 692.935676071359, "timestamp": "2025-12-03T17:47:50.989696+00:00", "meta": {"OBJECT_NAME": "FENGYUN 1C DEB", "OBJECT_ID": "1999-025GJ", "EPOCH": "2025-12-03T12:42:41.194080", "MEAN_MOTION": 14.19825535, "ECCENTRICITY": 0.0275298, "INCLINATION": 99.1921, "RA_OF_ASC_NODE": 169.8723, "ARG_OF_PERICENTER": 51.4925, "MEAN_ANOMALY": 311.0593, "EPHEMERIS_TYPE": 0, "CLASSIFICATION_TYPE": "U", "NORAD_CAT_ID": 29888, "ELEMENT_SET_NO": 999, "REV_AT_EPOCH": 97373, "BSTAR": 0.000469, "MEAN_MOTION_DOT": 1.401e-05, "MEAN_MOTION_DDOT": 0}, "tle": {"line1": "1 29888U 99025GJ  25337.52964345  .00001401  00000+0  46900-3 0  9995", "line2": "2 29888  99.1921 169.8723 0275298  51.4925 311.0593 14.19825535973737"}}, "geometry": {"type": "Point", "coordinates": [169.65848272991101, 2.678738587262885]}}, {"type": "Feature", "properties": {"norad_id": 29889, "name": "FENGYUN 1C DEB", "group": "fengyun-1c-debris", "lat": -66.85167028072566, "lon": 117.59748309095662, "alt_km": 929.6476586201288, "timestamp": "2025-12-03T17:47:50.989706+00:00", "meta": {"OBJECT_NAME": "FENGYUN 1C DEB", "OBJECT_ID": "1999-025GK", "EPOCH": "2025-12-03T06:21:58.063104", "MEAN_MOTION": 14.13493492, "ECCENTRICITY": 0.0154747, "INCLINATION": 99.4767, "RA_OF_ASC_NODE": 94.096, "ARG_OF_PERICENTER": 65.3692, "MEAN_ANOMALY": 324.8045, "EPHEMERIS_TYPE": 0, "CLASSIFICATION_TYPE": "U", "NORAD_CAT_ID": 29889, "ELEMENT_SET_NO": 999, "REV_AT_EPOCH": 97185, "BSTAR": 0.00041497, "MEAN_MOTION_DOT": 8.27e-06, "MEAN_MOTION_DDOT": 0}, "tle": {"line1": "1 29889U 99025GK  25337.26525536  .00000827  00000+0  41497-3 0  9999", "line2": "2 29889  99.4767  94.0960 0154747  65.3692 324.8045 14.13493492971853"}}, "geometry": {"type": "Point", "coordinates": [117.59748309095662, -66.85167028072566]}}, {"type": "Feature", "properties": {"norad_id": 29890, "name": "FENGYUN 1C DEB", "group": "fengyun-1c-debris", "lat": -28.2620457860718, "lon": -86.55454211224448, "alt_km": 824.8293767093874, "timestamp": "2025-12-03T17:47:50.989716+00:00", "meta": {"OBJECT_NAME": "FENGYUN 1C DEB", "OBJECT_ID": "1999-025GL", "EPOCH": "2025-12-03T01:38:02.493024", "MEAN_MOTION": 14.22975988, "ECCENTRICITY": 0.00149149, "INCLINATION": 99.4677, "RA_OF_ASC_NODE": 97.8688, "ARG_OF_PERICENTER": 99.7546, "MEAN_ANOMALY": 260.5314, "EPHEMERIS_TYPE": 0, "CLASSIFICATION_TYPE": "U", "NORAD_CAT_ID": 29890, "ELEMENT_SET_NO": 999, "REV_AT_EPOCH": 97313, "BSTAR": 0.001130762, "MEAN_MOTION_DOT": 2.499e-05, "MEAN_MOTION_DDOT": 0}, "tle": {"line1": "1 29890U 99025GL  25337.06808441  .00002499  00000+0  11308-2 0  9992", "line2": "2 29890  99.4677  97.8688 0014914  99.7546 260.5314 14.22975988973136"}}, "geometry": {"type": "Point", "coordinates": [-86.55454211224448, -28.2620457860718]}}, {"type": "Feature", "properties": {"norad_id": 29891, "name": "FENGYUN 1C DEB", "group": "fengyun-1c-debris", "lat": 21.373328420364153, "lon": 163.72814150602275, "alt_km": 920.5841355667408, "timestamp": "2025-12-03T17:47:50.989727+00:00", "meta": {"OBJECT_NAME": "FENGYUN 1C DEB", "OBJECT_ID": "1999-025GM", "EPOCH": "2025-12-03T10:57:24.850368", "MEAN_MOTION": 13.999808, "ECCENTRICITY": 0.0061616, "INCLINATION": 98.726, "RA_OF_ASC_NODE": 340.0104, "ARG_OF_PERICENTER": 286.3258, "MEAN_ANOMALY": 236.7857, "EPHEMERIS_TYPE": 0, "CLASSIFICATION_TYPE": "U", "NORAD_CAT_ID": 29891, "ELEMENT_SET_NO": 999, "REV_AT_EPOCH": 96358, "BSTAR": 0.00047171, "MEAN_MOTION_DOT": 6.63e-06, "MEAN_MOTION_DDOT": 0}, "tle": {"line1": "1 29891U 99025GM  25337.45653762  .00000663  00000+0  47171-3 0  9999", "line2": "2 29891  98.7260 340.0104 0061616 286.3258 236.7857 13.99980800963585"}}, "geometry": {"type": "Point", "coordinates": [163.72814150602275, 21.373328420364153]}}]}